#dP2021  4 11 18  0  0.00000000      96 __u+U ITR00 EXT  IAC
## 2153  64800.00000000   900.00000000 59315 0.7500000000000
+  116   C06C07C08C09C10C11C12C13C14C16C19C20C21C22C23C24C25
+        C26C27C28C29C30C32C33C34C35C36C37C38C39C40C41C42C43
+        C44C45C46E01E02E03E04E05E07E08E09E11E12E13E14E15E18
+        E19E21E24E25E26E27E30E31E33E36G01G02G03G04G05G06G07
+        G08G09G10G12G13G14G15G16G17G18G19G20G21G22G23G24G25
+        G26G27G28G29G30G31G32J01J02J03R01R02R03R04R05R07R08
+        R09R11R12R13R14R15R16R17R18R19R20R21R22R24  0  0  0
++         8  9 10  8  9  9  8 11  9  8  9  8  7  8  8  9  9
++         9  9 10 10  8  9  7  9  8  9  9 10  9 10 10  8 10
++         9 10  8  9  7  7  7  6  7  8  7  9  9  7  9  7  7
++         6  9  7  9  8  9  8  8  8  7  8  6  8  7  8  7  7
++         7  8  6  8  7  7  7  7  7  8  7  8  6  7  7  8  7
++         7  7  7  8  8  8  7 11 10 10  9  8  7  9  8  9  9
++        11  9  8  9  8  8  9  7  9  8 10  9  8  7  0  0  0
%c M  cc GPS ccc cccc cccc cccc cccc ccccc ccccc ccccc ccccc
%c cc cc ccc ccc cccc cccc cccc cccc ccccc ccccc ccccc ccccc
%f  0.0000000  0.000000000  0.00000000000  0.000000000000000
%f  0.0000000  0.000000000  0.00000000000  0.000000000000000
%i    0    0    0    0      0      0      0      0         0
%i    0    0    0    0      0      0      0      0         0
/* IAC                                ULTRA-RAPID PREDICTION
/* S/V CLOCKS ARE ALIGNED TO GNSS TIME                      
/* G:C1WC2W R:C1PC2P E:C1XC5X C:C2IC6I J:C1CC2S             
/* PCV:IGS14_2148 OL/AL:FES2004  NONE     YN ORB:CoN CLK:CoN
*  2021 04 11 21  0  0.00000000
PC06 -12527.019405  21550.798084  34450.687162    268.472002
PC07 -24860.275064  32593.473209 -10703.346671   -110.613325
PC08  -8610.370049  34923.696382 -21587.448956   -892.891393
PC09   3718.871965  27654.798929  32023.371541    602.663394
PC10 -11756.213361  33926.314849 -22242.880415    -57.975719
PC11 -17737.158601   4926.454958 -20924.414862   -815.033524
PC12 -25024.804975  -9593.536400  -7767.427134    932.722371
PC13     60.225074  41082.405691  -8785.648916    217.651976
PC14 -24104.838947  14095.710138    927.521193    443.565914
PC16  -8321.131626  22750.373355  34631.361676   -778.804617
PC19  18551.214793 -18245.111521 -10027.911391    795.165453
PC20  25581.283579  -8685.449832   6951.566522   -952.224377
PC21 -17663.320831  -6539.124074 -20574.611741   -936.454818
PC22    510.586921 -17488.863662 -21723.376155   -958.917432
PC23   2099.767475  27531.907682  -4037.881123   -886.764004
PC24 -16145.564334   3857.322795  22418.118515   -810.822611
PC25  -9091.852252  23138.260271  12651.069422   -934.032621
PC26 -13463.847243 -15431.899422  18961.644377    922.370028
PC27  23065.681082  15667.481268  -1409.742899    513.818441
PC28   9274.110011  19887.829586 -17237.778053    -87.434824
PC29   9445.201399 -12834.720106  22900.995416    377.499000
PC30  23587.165977   1788.060723  14821.075312    459.515957
PC32  17687.982671   6468.248541  20609.746275   -937.484012
PC33 -18494.152755  18370.103875  10001.970631   -941.969327
PC34 -23263.983061  -1197.978001 -15354.439657   -698.108482
PC35  -9585.421286 -19561.060291  17414.030969   -331.611847
PC36   9801.587226 -22702.229829 -12914.130420   -732.409484
PC37  12758.693371  16527.877777 -18492.622996   -894.223323
PC38  -7021.085694  37573.825622 -17661.990783    141.652213
PC39  -4277.033110  24008.289954  34430.246083     30.210528
PC40 -18168.707847  30132.939705 -23301.824411    150.165158
PC41   -742.566424  17658.122868  21648.855617   -942.639272
PC42 -25575.255671   8249.027663  -7507.254113   -925.958099
PC43 -10022.564553  12600.609737 -22798.677172   -681.164989
PC44 -23479.242293 -14961.158796   1566.692776    132.754409
PC45  -2197.159000 -27520.649560   4140.234307    411.240045
PC46  15940.353602  -5043.766984 -22345.587700    320.667662
PE01 -19075.158908   3592.320156  22341.081086  -1084.946055
PE02  19119.264685  -3737.098705 -22296.829930    211.497301
PE03  29523.672163    539.318994   1964.576866   -419.056694
PE04 -22413.009798  11604.935499  15475.211425   -748.134396
PE05  19403.273375  12546.868935  18506.038745   -289.614155
PE07   1911.929525 -17103.422046 -24072.242577   -524.384025
PE08  22109.863143 -11771.373877 -15757.618000   6019.099476
PE09  -1662.456033  16980.417557  24197.085774   5704.111042
PE11   4906.598915  25440.801525 -14340.375264   6105.620314
PE12 -11252.867897  12207.451532 -24506.423837   5264.518074
PE13  -4666.028887 -25247.336835  14724.189494    414.881213
PE14  12811.705331 -10782.006171  16327.972237  -1393.612510
PE15  11152.169355 -12200.672965  24561.226297    819.952822
PE18 -15174.627074  16347.995294 -23760.163305  -1524.564853
PE19 -29239.969801  -2038.048571  -4109.436725    249.846111
PE21  -9203.343810 -15884.566976  23214.478684   -658.788240
PE24  -7005.322977  26955.047223 -10006.452988   -841.992129
PE25   9074.267169  16043.880781 -23158.444502   -530.766635
PE26 -17952.353028 -23096.265343  -4500.519249   1935.753739
PE27   6357.335176 -26881.322762  10650.274880     -9.152420
PE30  18513.233389 -21330.187439  -8898.146556   3032.793365
PE31 -18075.436582  21997.129286   8093.159504   -480.069155
PE33 -20367.705116  -7989.113940 -19924.478240   -467.449781
PE36  17726.842338  23411.851473   3784.753178   -192.398431
PG01  15656.222515   1970.394637  21175.797168    718.723646
PG02 -13766.532931 -21980.989835  -4948.041127   -594.779980
PG03  20285.032282  -8572.875748  14687.046454   -134.104455
PG04  25763.133313    671.133190  -6541.567740   -191.306625
PG05 -13476.922192  -7679.618818 -21722.929890    -38.812937
PG06  -5341.356614 -25386.733799   5609.694793      6.548564
PG07  10445.658858 -13200.789351 -20079.150595    119.074457
PG08  26044.353546   5580.963043  -2213.959320    -17.152402
PG09  20141.263562  -7972.329835 -15448.357166   -338.195293
PG10  -9454.924288  22495.745915  10271.263733   -100.009807
PG12 -19999.401583   4590.436465  16528.083378    -26.498137
PG13 -21038.757179 -13376.971916  -9477.013529    118.764638
PG14  11271.919547 -22138.848030   9355.969945     96.703321
PG15 -26487.174033  -3217.936182  -2309.504752   -156.842827
PG16   9895.580715  11353.452833 -22107.528291   -308.195702
PG17   3883.899300 -14425.720679  22387.199844    424.813058
PG18  -7861.544845  16994.680316 -18820.327375    351.616157
PG19  -5781.498764 -15769.878192  20317.096589    -14.224319
PG20 -18830.855249  14497.090958 -11535.756569    523.272482
PG21  18137.214660   9201.479993  18043.246560    110.257709
PG22  17603.777581    449.602779  20029.138168   -640.120023
PG23 -16745.479771  20578.073176   -561.611600    113.994358
PG24 -17889.058788  -6973.272887  18266.288445     -0.106598
PG25 -19514.652553  16509.890135   6401.689548    116.716345
PG26   2588.631837  18812.255558 -18521.020466     70.835197
PG27  19881.795583  12377.281438 -13047.624159   -110.971544
PG28   9704.796172 -21721.474219  12567.171062    588.231469
PG29 -20161.476450   6112.805190 -16246.608447   -328.298405
PG30   1527.189203 -23398.708594 -12198.209232   -411.493281
PG31   6760.948340  25296.200659   2469.361117   -111.023666
PG32   -941.180617  15367.265661  21756.184185     22.080123
PJ01 -31186.575291  26468.128899  15224.456856   -364.564816
PJ02 -31017.156297  26455.014170  15512.218941      5.274476
PJ03 -26217.309015  16359.610135 -24103.750063     -3.220664
PR01  12650.210859   6399.919144  21208.296051     77.749224
PR02  24418.516766  -5131.274728   5488.695279    474.440667
PR03  19107.630210 -12153.829829 -11743.738513     34.048197
PR04   3149.574358 -12010.506543 -22250.534575     81.974641
PR05 -14520.987400  -5293.973263 -20269.394131     69.820976
PR07 -18553.922483  12302.692659  12455.228169    -42.544687
PR08  -2985.857312  12133.729146  22294.175124    -58.481344
PR09 -11980.394386   4678.355383  22053.049896    -12.536761
PR11  -2113.119566  24822.179789  -5502.096306      1.042114
PR12   6763.766747  14353.636976 -19943.238171    220.073302
PR13  11650.378037  -4014.996672 -22354.205445    -53.289388
PR14   9771.419684 -20662.002504 -11305.902562     63.042036
PR15   2209.349564 -24708.415988   5960.479104    104.425143
PR16  -7600.356278 -13455.213663  20308.445995    -13.671259
PR17   7483.457563  -7449.991710  23226.675016    415.386922
PR18  -7156.165579 -17136.330032  17469.670501     72.867591
PR19 -17281.642551 -18493.543452   3147.244520   -139.399748
PR20 -18337.658027  -7881.708768 -15845.413183    -47.106536
PR21  -6499.776039   8227.365906 -23254.024554   -201.049398
PR22   8092.341032  17583.339437 -16687.564913   -107.307361
PR24  18456.013443   6826.388416  16243.323345     38.485772
EOF
